MOLNIYA 3-31            
1 17328U 87008A   17345.36578868 -.00000483  00000-0 -24456-1 0  9994
2 17328  64.1507 302.4517 6939901 268.8846 345.2961  2.00639450222776
